STARLINK-37025          
1 68223U 26053S   26088.16668981 -.00029195  00000+0 -15207-3 0  9991
2 68223  97.2843 323.3969 0001408 100.7261 325.8610 15.80832741  3143
STARLINK-36977          
1 68224U 26053T   26088.16668981 -.00129940  00000+0 -68606-3 0  9992
2 68224  97.2833 323.3974 0001594  92.9134 337.9640 15.80869102  3032
STARLINK-36960          
1 68225U 26053U   26088.16668981  .00128910  00000+0  66498-3 0  9994
2 68225  97.2824 323.3997 0001892  99.7477 335.3850 15.80777796  3126
STARLINK-37038          
1 68226U 26053V   26088.16668981 -.00085343  00000+0 -44812-3 0  9995
2 68226  97.2825 323.4027 0001714  99.5132 344.1528 15.80865667  3127
STARLINK-37083          
1 68227U 26053W   26088.16668981 -.00126461  00000+0 -66724-3 0  9999
2 68227  97.2819 323.4010 0001750 113.2383 326.1609 15.80874091  3148
STARLINK-37050          
1 68228U 26053X   26088.16668981 -.00038018  00000+0 -19833-3 0  9999
2 68228  97.2826 323.4048 0000871  99.7063 348.2329 15.80846509  3129
STARLINK-37081          
1 68229U 26053Y   26088.16668981 -.01922466  00000+0 -11866-1 0  9996
2 68229  97.2819 323.4103 0001707 102.0772 358.5015 15.80137849  3146
STARLINK-37100          
1 68230U 26053Z   26088.16668981 -.00008682  00000+0 -44595-4 0  9990
2 68230  97.2824 323.4068 0001583 100.6304 351.5856 15.80831884  3147
STARLINK-37104          
1 68231U 26053AA  26088.16668981 -.00067741  00000+0 -35523-3 0  9992
2 68231  97.2819 323.4082 0000932  73.7560  22.7517 15.80843336  3145
STARLINK-37027          
1 68232U 26054A   26088.16391470 -.00010902  00000+0 -53626-4 0  9992
2 68232  53.1591 215.0801 0002295 231.5390 128.5427 15.80112288  1854
STARLINK-37132          
1 68233U 26054B   26088.16298791  .00576051  00000+0  27066-2 0  9992
2 68233  53.1590 215.0737 0000799   1.1688 358.9337 15.81073230  1853
STARLINK-37101          
1 68234U 26054C   26088.16223734  .00692073  00000+0  32007-2 0  9992
2 68234  53.1588 215.0682 0000229 264.1209  95.9788 15.81112298  1854
STARLINK-36963          
1 68235U 26054D   26088.16668981 -.01939688  00000+0 -11402-1 0  9994
2 68235  53.1590 215.0278 0000540  25.8566   8.1709 15.80672005  3041
STARLINK-37127          
1 68236U 26054E   26088.16668981 -.00057412  00000+0 -37261-3 0  9993
2 68236  53.1593 215.1075 0000832 100.7574 254.4675 15.75257081  3121
STARLINK-37095          
1 68237U 26054F   26088.16668981  .00023575  00000+0  15768-3 0  9993
2 68237  53.1598 215.0543 0000853  82.3665 298.6100 15.75217068  3040
STARLINK-37097          
1 68238U 26054G   26088.16668981  .00043276  00000+0  22206-3 0  9999
2 68238  53.1591 215.0101 0001008 110.9367 291.6128 15.80837048  3049
